[
   {
      "name":"Bangladesh",
      "currency":"BDT",
      "unicodeFlag":"ðŸ‡§ðŸ‡©",
      "flag":"https://upload.wikimedia.org/wikipedia/commons/f/f9/Flag_of_Bangladesh.svg",
      "dialCode":"880",
      "iso2":"BD"
   },
   {
      "name":"Belgium",
      "currency":"EUR",
      "unicodeFlag":"ðŸ‡§ðŸ‡ª",
      "flag":"https://upload.wikimedia.org/wikipedia/commons/6/65/Flag_of_Belgium.svg",
      "dialCode":"32",
      "iso2":"BE"
   },
   {
      "name":"Burkina Faso",
      "currency":"XOF",
      "unicodeFlag":"ðŸ‡§ðŸ‡«",
      "flag":"https://upload.wikimedia.org/wikipedia/commons/3/31/Flag_of_Burkina_Faso.svg",
      "dialCode":"226",
      "iso2":"BF"
   },
   {
      "name":"Bulgaria",
      "currency":"BGN",
      "unicodeFlag":"ðŸ‡§ðŸ‡¬",
      "flag":"https://upload.wikimedia.org/wikipedia/commons/9/9a/Flag_of_Bulgaria.svg",
      "dialCode":"359",
      "iso2":"BG"
   },
   {
      "name":"Bosnia and Herzegovina",
      "currency":"BAM",
      "unicodeFlag":"ðŸ‡§ðŸ‡¦",
      "flag":"https://upload.wikimedia.org/wikipedia/commons/b/bf/Flag_of_Bosnia_and_Herzegovina.svg",
      "dialCode":"387",
      "iso2":"BA"
   },
   {
      "name":"Barbados",
      "currency":"BBD",
      "unicodeFlag":"ðŸ‡§ðŸ‡§",
      "flag":"https://upload.wikimedia.org/wikipedia/commons/e/ef/Flag_of_Barbados.svg",
      "dialCode":"+1-246",
      "iso2":"BB"
   },
   {
      "name":"Wallis and Futuna",
      "currency":"XPF",
      "unicodeFlag":"ðŸ‡¼ðŸ‡«",
      "flag":"https://upload.wikimedia.org/wikipedia/commons/d/d2/Flag_of_Wallis_and_Futuna.svg",
      "dialCode":"681",
      "iso2":"WF"
   },
   {
      "name":"Saint Barthelemy",
      "currency":"EUR",
      "unicodeFlag":"ðŸ‡§ðŸ‡±",
      "dialCode":"590",
      "iso2":"BL"
   },
   {
      "name":"Bermuda",
      "currency":"BMD",
      "unicodeFlag":"ðŸ‡§ðŸ‡²",
      "flag":"https://upload.wikimedia.org/wikipedia/commons/b/bf/Flag_of_Bermuda.svg",
      "dialCode":"+1-441",
      "iso2":"BM"
   },
   {
      "name":"Brunei",
      "currency":"BND",
      "unicodeFlag":"ðŸ‡§ðŸ‡³",
      "flag":"https://upload.wikimedia.org/wikipedia/commons/9/9c/Flag_of_Brunei.svg",
      "dialCode":"673",
      "iso2":"BN"
   },
   {
      "name":"Bolivia",
      "currency":"BOB",
      "unicodeFlag":"ðŸ‡§ðŸ‡´",
      "dialCode":"591",
      "iso2":"BO"
   },
   {
      "name":"Bahrain",
      "currency":"BHD",
      "unicodeFlag":"ðŸ‡§ðŸ‡­",
      "flag":"https://upload.wikimedia.org/wikipedia/commons/2/2c/Flag_of_Bahrain.svg",
      "dialCode":"973",
      "iso2":"BH"
   },
   {
      "name":"Burundi",
      "currency":"BIF",
      "unicodeFlag":"ðŸ‡§ðŸ‡®",
      "flag":"https://upload.wikimedia.org/wikipedia/commons/5/50/Flag_of_Burundi.svg",
      "dialCode":"257",
      "iso2":"BI"
   },
   {
      "name":"Benin",
      "currency":"XOF",
      "unicodeFlag":"ðŸ‡§ðŸ‡¯",
      "flag":"https://upload.wikimedia.org/wikipedia/commons/0/0a/Flag_of_Benin.svg",
      "dialCode":"229",
      "iso2":"BJ"
   },
   {
      "name":"Bhutan",
      "currency":"BTN",
      "unicodeFlag":"ðŸ‡§ðŸ‡¹",
      "flag":"https://upload.wikimedia.org/wikipedia/commons/9/91/Flag_of_Bhutan.svg",
      "dialCode":"975",
      "iso2":"BT"
   },
   {
      "name":"Jamaica",
      "currency":"JMD",
      "unicodeFlag":"ðŸ‡¯ðŸ‡²",
      "flag":"https://upload.wikimedia.org/wikipedia/commons/0/0a/Flag_of_Jamaica.svg",
      "dialCode":"+1-876",
      "iso2":"JM"
   },
   {
      "name":"Bouvet Island",
      "currency":"NOK",
      "unicodeFlag":"ðŸ‡§ðŸ‡»",
      "flag":"https://upload.wikimedia.org/wikipedia/commons/d/d9/Flag_of_Norway.svg",
      "iso2":"BV"
   },
   {
      "name":"Botswana",
      "currency":"BWP",
      "unicodeFlag":"ðŸ‡§ðŸ‡¼",
      "flag":"https://upload.wikimedia.org/wikipedia/commons/f/fa/Flag_of_Botswana.svg",
      "dialCode":"267",
      "iso2":"BW"
   },
   {
      "name":"Samoa",
      "currency":"WST",
      "unicodeFlag":"ðŸ‡¼ðŸ‡¸",
      "flag":"https://upload.wikimedia.org/wikipedia/commons/3/31/Flag_of_Samoa.svg",
      "dialCode":"685",
      "iso2":"WS"
   },
   {
      "name":"Bonaire, Saint Eustatius and Saba ",
      "currency":"USD",
      "unicodeFlag":"ðŸ‡§ðŸ‡¶",
      "dialCode":"599",
      "iso2":"BQ"
   },
   {
      "name":"Brazil",
      "currency":"BRL",
      "unicodeFlag":"ðŸ‡§ðŸ‡·",
      "flag":"https://upload.wikimedia.org/wikipedia/en/0/05/Flag_of_Brazil.svg",
      "dialCode":"55",
      "iso2":"BR"
   },
   {
      "name":"Bahamas",
      "currency":"BSD",
      "unicodeFlag":"ðŸ‡§ðŸ‡¸",
      "flag":"https://upload.wikimedia.org/wikipedia/commons/9/93/Flag_of_the_Bahamas.svg",
      "dialCode":"+1-242",
      "iso2":"BS"
   },
   {
      "name":"Jersey",
      "currency":"GBP",
      "unicodeFlag":"ðŸ‡¯ðŸ‡ª",
      "flag":"https://upload.wikimedia.org/wikipedia/commons/1/1c/Flag_of_Jersey.svg",
      "dialCode":"+44-1534",
      "iso2":"JE"
   },
   {
      "name":"Belarus",
      "currency":"BYR",
      "unicodeFlag":"ðŸ‡§ðŸ‡¾",
      "flag":"https://upload.wikimedia.org/wikipedia/commons/8/85/Flag_of_Belarus.svg",
      "dialCode":"375",
      "iso2":"BY"
   },
   {
      "name":"Belize",
      "currency":"BZD",
      "unicodeFlag":"ðŸ‡§ðŸ‡¿",
      "flag":"https://upload.wikimedia.org/wikipedia/commons/e/e7/Flag_of_Belize.svg",
      "dialCode":"501",
      "iso2":"BZ"
   },
   {
      "name":"Russia",
      "currency":"RUB",
      "unicodeFlag":"ðŸ‡·ðŸ‡º",
      "dialCode":"7",
      "iso2":"RU"
   },
   {
      "name":"Rwanda",
      "currency":"RWF",
      "unicodeFlag":"ðŸ‡·ðŸ‡¼",
      "flag":"https://upload.wikimedia.org/wikipedia/commons/1/17/Flag_of_Rwanda.svg",
      "dialCode":"250",
      "iso2":"RW"
   },
   {
      "name":"Serbia",
      "currency":"RSD",
      "unicodeFlag":"ðŸ‡·ðŸ‡¸",
      "flag":"https://upload.wikimedia.org/wikipedia/commons/f/ff/Flag_of_Serbia.svg",
      "dialCode":"381",
      "iso2":"RS"
   },
   {
      "name":"Timor-Leste",
      "currency":"USD",
      "unicodeFlag":"ðŸ‡¹ðŸ‡±",
      "flag":"https://upload.wikimedia.org/wikipedia/commons/2/26/Flag_of_East_Timor.svg",
      "dialCode":"670",
      "iso2":"TL"
   },
   {
      "name":"RÃ©union",
      "currency":"EUR",
      "unicodeFlag":"ðŸ‡·ðŸ‡ª",
      "flag":"https://upload.wikimedia.org/wikipedia/en/c/c3/Flag_of_France.svg",
      "dialCode":"262",
      "iso2":"RE"
   },
   {
      "name":"Turkmenistan",
      "currency":"TMT",
      "unicodeFlag":"ðŸ‡¹ðŸ‡²",
      "flag":"https://upload.wikimedia.org/wikipedia/commons/1/1b/Flag_of_Turkmenistan.svg",
      "dialCode":"993",
      "iso2":"TM"
   },
   {
      "name":"Tajikistan",
      "currency":"TJS",
      "unicodeFlag":"ðŸ‡¹ðŸ‡¯",
      "flag":"https://upload.wikimedia.org/wikipedia/commons/d/d0/Flag_of_Tajikistan.svg",
      "dialCode":"992",
      "iso2":"TJ"
   },
   {
      "name":"Romania",
      "currency":"RON",
      "unicodeFlag":"ðŸ‡·ðŸ‡´",
      "flag":"https://upload.wikimedia.org/wikipedia/commons/7/73/Flag_of_Romania.svg",
      "dialCode":"40",
      "iso2":"RO"
   },
   {
      "name":"Tokelau",
      "currency":"NZD",
      "unicodeFlag":"ðŸ‡¹ðŸ‡°",
      "flag":"https://upload.wikimedia.org/wikipedia/commons/8/8e/Flag_of_Tokelau.svg",
      "dialCode":"690",
      "iso2":"TK"
   },
   {
      "name":"Guinea-Bissau",
      "currency":"XOF",
      "unicodeFlag":"ðŸ‡¬ðŸ‡¼",
      "flag":"https://upload.wikimedia.org/wikipedia/commons/0/01/Flag_of_Guinea-Bissau.svg",
      "dialCode":"245",
      "iso2":"GW"
   },
   {
      "name":"Guam",
      "currency":"USD",
      "unicodeFlag":"ðŸ‡¬ðŸ‡º",
      "flag":"https://upload.wikimedia.org/wikipedia/commons/0/07/Flag_of_Guam.svg",
      "dialCode":"+1-671",
      "iso2":"GU"
   },
   {
      "name":"Guatemala",
      "currency":"GTQ",
      "unicodeFlag":"ðŸ‡¬ðŸ‡¹",
      "flag":"https://upload.wikimedia.org/wikipedia/commons/e/ec/Flag_of_Guatemala.svg",
      "dialCode":"502",
      "iso2":"GT"
   },
   {
      "name":"South Georgia and the South Sandwich Islands",
      "currency":"GBP",
      "unicodeFlag":"ðŸ‡¬ðŸ‡¸",
      "flag":"https://upload.wikimedia.org/wikipedia/commons/e/ed/Flag_of_South_Georgia_and_the_South_Sandwich_Islands.svg",
      "iso2":"GS"
   },
   {
      "name":"Greece",
      "currency":"EUR",
      "unicodeFlag":"ðŸ‡¬ðŸ‡·",
      "flag":"https://upload.wikimedia.org/wikipedia/commons/5/5c/Flag_of_Greece.svg",
      "dialCode":"30",
      "iso2":"GR"
   },
   {
      "name":"Equatorial Guinea",
      "currency":"XAF",
      "unicodeFlag":"ðŸ‡¬ðŸ‡¶",
      "flag":"https://upload.wikimedia.org/wikipedia/commons/3/31/Flag_of_Equatorial_Guinea.svg",
      "dialCode":"240",
      "iso2":"GQ"
   },
   {
      "name":"Guadeloupe",
      "currency":"EUR",
      "unicodeFlag":"ðŸ‡¬ðŸ‡µ",
      "flag":"https://upload.wikimedia.org/wikipedia/commons/7/7d/Flag_of_Guadeloupe_%28local%29_variant.svg",
      "dialCode":"590",
      "iso2":"GP"
   },
   {
      "name":"Japan",
      "currency":"JPY",
      "unicodeFlag":"ðŸ‡¯ðŸ‡µ",
      "flag":"https://upload.wikimedia.org/wikipedia/en/9/9e/Flag_of_Japan.svg",
      "dialCode":"81",
      "iso2":"JP"
   },
   {
      "name":"Guyana",
      "currency":"GYD",
      "unicodeFlag":"ðŸ‡¬ðŸ‡¾",
      "flag":"https://upload.wikimedia.org/wikipedia/commons/9/99/Flag_of_Guyana.svg",
      "dialCode":"592",
      "iso2":"GY"
   },
   {
      "name":"Guernsey",
      "currency":"GBP",
      "unicodeFlag":"ðŸ‡¬ðŸ‡¬",
      "flag":"https://upload.wikimedia.org/wikipedia/commons/f/fa/Flag_of_Guernsey.svg",
      "dialCode":"+44-1481",
      "iso2":"GG"
   },
   {
      "name":"Georgia",
      "currency":"GEL",
      "unicodeFlag":"ðŸ‡¬ðŸ‡ª",
      "flag":"https://upload.wikimedia.org/wikipedia/commons/0/0f/Flag_of_Georgia.svg",
      "dialCode":"995",
      "iso2":"GE"
   },
   {
      "name":"Grenada",
      "currency":"XCD",
      "unicodeFlag":"ðŸ‡¬ðŸ‡©",
      "flag":"https://upload.wikimedia.org/wikipedia/commons/b/bc/Flag_of_Grenada.svg",
      "dialCode":"+1-473",
      "iso2":"GD"
   },
   {
      "name":"United Kingdom",
      "currency":"GBP",
      "unicodeFlag":"ðŸ‡¬ðŸ‡§",
      "flag":"https://upload.wikimedia.org/wikipedia/en/a/ae/Flag_of_the_United_Kingdom.svg",
      "dialCode":"44",
      "iso2":"GB"
   },
   {
      "name":"Gabon",
      "currency":"XAF",
      "unicodeFlag":"ðŸ‡¬ðŸ‡¦",
      "flag":"https://upload.wikimedia.org/wikipedia/commons/0/04/Flag_of_Gabon.svg",
      "dialCode":"241",
      "iso2":"GA"
   },
   {
      "name":"El Salvador",
      "currency":"USD",
      "unicodeFlag":"ðŸ‡¸ðŸ‡»",
      "flag":"https://upload.wikimedia.org/wikipedia/commons/3/34/Flag_of_El_Salvador.svg",
      "dialCode":"503",
      "iso2":"SV"
   },
   {
      "name":"Guinea",
      "currency":"GNF",
      "unicodeFlag":"ðŸ‡¬ðŸ‡³",
      "flag":"https://upload.wikimedia.org/wikipedia/commons/e/ed/Flag_of_Guinea.svg",
      "dialCode":"224",
      "iso2":"GN"
   },
   {
      "name":"Gambia",
      "currency":"GMD",
      "unicodeFlag":"ðŸ‡¬ðŸ‡²",
      "flag":"https://upload.wikimedia.org/wikipedia/commons/7/77/Flag_of_The_Gambia.svg",
      "dialCode":"220",
      "iso2":"GM"
   },
   {
      "name":"Greenland",
      "currency":"DKK",
      "unicodeFlag":"ðŸ‡¬ðŸ‡±",
      "flag":"https://upload.wikimedia.org/wikipedia/commons/0/09/Flag_of_Greenland.svg",
      "dialCode":"299",
      "iso2":"GL"
   },
   {
      "name":"Gibraltar",
      "currency":"GIP",
      "unicodeFlag":"ðŸ‡¬ðŸ‡®",
      "flag":"https://upload.wikimedia.org/wikipedia/commons/0/02/Flag_of_Gibraltar.svg",
      "dialCode":"350",
      "iso2":"GI"
   },
   {
      "name":"Ghana",
      "currency":"GHS",
      "unicodeFlag":"ðŸ‡¬ðŸ‡­",
      "flag":"https://upload.wikimedia.org/wikipedia/commons/1/19/Flag_of_Ghana.svg",
      "dialCode":"233",
      "iso2":"GH"
   },
   {
      "name":"Oman",
      "currency":"OMR",
      "unicodeFlag":"ðŸ‡´ðŸ‡²",
      "flag":"https://upload.wikimedia.org/wikipedia/commons/d/dd/Flag_of_Oman.svg",
      "dialCode":"968",
      "iso2":"OM"
   },
   {
      "name":"Tunisia",
      "currency":"TND",
      "unicodeFlag":"ðŸ‡¹ðŸ‡³",
      "flag":"https://upload.wikimedia.org/wikipedia/commons/c/ce/Flag_of_Tunisia.svg",
      "dialCode":"216",
      "iso2":"TN"
   },
   {
      "name":"Jordan",
      "currency":"JOD",
      "unicodeFlag":"ðŸ‡¯ðŸ‡´",
      "flag":"https://upload.wikimedia.org/wikipedia/commons/c/c0/Flag_of_Jordan.svg",
      "dialCode":"962",
      "iso2":"JO"
   },
   {
      "name":"Croatia",
      "currency":"HRK",
      "unicodeFlag":"ðŸ‡­ðŸ‡·",
      "flag":"https://upload.wikimedia.org/wikipedia/commons/1/1b/Flag_of_Croatia.svg",
      "dialCode":"385",
      "iso2":"HR"
   },
   {
      "name":"Haiti",
      "currency":"HTG",
      "unicodeFlag":"ðŸ‡­ðŸ‡¹",
      "flag":"https://upload.wikimedia.org/wikipedia/commons/5/56/Flag_of_Haiti.svg",
      "dialCode":"509",
      "iso2":"HT"
   },
   {
      "name":"Hungary",
      "currency":"HUF",
      "unicodeFlag":"ðŸ‡­ðŸ‡º",
      "flag":"https://upload.wikimedia.org/wikipedia/commons/c/c1/Flag_of_Hungary.svg",
      "dialCode":"36",
      "iso2":"HU"
   },
   {
      "name":"Hong Kong",
      "currency":"HKD",
      "unicodeFlag":"ðŸ‡­ðŸ‡°",
      "flag":"https://upload.wikimedia.org/wikipedia/commons/5/5b/Flag_of_Hong_Kong.svg",
      "dialCode":"852",
      "iso2":"HK"
   },
   {
      "name":"Honduras",
      "currency":"HNL",
      "unicodeFlag":"ðŸ‡­ðŸ‡³",
      "flag":"https://upload.wikimedia.org/wikipedia/commons/c/ca/Naval_Ensign_of_Honduras.svg",
      "dialCode":"504",
      "iso2":"HN"
   },
   {
      "name":"Heard Island and McDonald Islands",
      "currency":"AUD",
      "unicodeFlag":"ðŸ‡­ðŸ‡²",
      "flag":"https://upload.wikimedia.org/wikipedia/commons/8/88/Flag_of_Australia_%28converted%29.svg",
      "dialCode":" ",
      "iso2":"HM"
   },
   {
      "name":"Venezuela",
      "currency":"VEF",
      "unicodeFlag":"ðŸ‡»ðŸ‡ª",
      "dialCode":"58",
      "iso2":"VE"
   },
   {
      "name":"Vatican City State (Holy See)",
      "currency":"EUR",
      "unicodeFlag":"ðŸ‡»ðŸ‡¦",
      "flag":"https://upload.wikimedia.org/wikipedia/commons/0/00/Flag_of_the_Vatican_City.svg",
      "dialCode":"379",
      "iso2":"VA"
   },
   {
      "name":"Puerto Rico",
      "currency":"USD",
      "unicodeFlag":"ðŸ‡µðŸ‡·",
      "flag":"https://upload.wikimedia.org/wikipedia/commons/2/28/Flag_of_Puerto_Rico.svg",
      "dialCode":"+1-787 and 1-939",
      "iso2":"PR"
   },
   {
      "name":"Palestinian Territory",
      "currency":"ILS",
      "unicodeFlag":"ðŸ‡µðŸ‡¸",
      "dialCode":"970",
      "iso2":"PS"
   },
   {
      "name":"Palau",
      "currency":"USD",
      "unicodeFlag":"ðŸ‡µðŸ‡¼",
      "flag":"https://upload.wikimedia.org/wikipedia/commons/4/48/Flag_of_Palau.svg",
      "dialCode":"680",
      "iso2":"PW"
   },
   {
      "name":"Portugal",
      "currency":"EUR",
      "unicodeFlag":"ðŸ‡µðŸ‡¹",
      "flag":"https://upload.wikimedia.org/wikipedia/commons/5/5c/Flag_of_Portugal.svg",
      "dialCode":"351",
      "iso2":"PT"
   },
   {
      "name":"Svalbard and Jan Mayen",
      "currency":"NOK",
      "unicodeFlag":"ðŸ‡¸ðŸ‡¯",
      "dialCode":"47",
      "iso2":"SJ"
   },
   {
      "name":"Paraguay",
      "currency":"PYG",
      "unicodeFlag":"ðŸ‡µðŸ‡¾",
      "flag":"https://upload.wikimedia.org/wikipedia/commons/2/27/Flag_of_Paraguay.svg",
      "dialCode":"595",
      "iso2":"PY"
   },
   {
      "name":"Iraq",
      "currency":"IQD",
      "unicodeFlag":"ðŸ‡®ðŸ‡¶",
      "flag":"https://upload.wikimedia.org/wikipedia/commons/f/f6/Flag_of_Iraq.svg",
      "dialCode":"964",
      "iso2":"IQ"
   },
   {
      "name":"Panama",
      "currency":"PAB",
      "unicodeFlag":"ðŸ‡µðŸ‡¦",
      "flag":"https://upload.wikimedia.org/wikipedia/commons/a/ab/Flag_of_Panama.svg",
      "dialCode":"507",
      "iso2":"PA"
   },
   {
      "name":"French Polynesia",
      "currency":"XPF",
      "unicodeFlag":"ðŸ‡µðŸ‡«",
      "flag":"https://upload.wikimedia.org/wikipedia/commons/d/db/Flag_of_French_Polynesia.svg",
      "dialCode":"689",
      "iso2":"PF"
   },
   {
      "name":"Papua New Guinea",
      "currency":"PGK",
      "unicodeFlag":"ðŸ‡µðŸ‡¬",
      "flag":"https://upload.wikimedia.org/wikipedia/commons/e/e3/Flag_of_Papua_New_Guinea.svg",
      "dialCode":"675",
      "iso2":"PG"
   },
   {
      "name":"Peru",
      "currency":"PEN",
      "unicodeFlag":"ðŸ‡µðŸ‡ª",
      "flag":"https://upload.wikimedia.org/wikipedia/commons/c/cf/Flag_of_Peru.svg",
      "dialCode":"51",
      "iso2":"PE"
   },
   {
      "name":"Pakistan",
      "currency":"PKR",
      "unicodeFlag":"ðŸ‡µðŸ‡°",
      "flag":"https://upload.wikimedia.org/wikipedia/commons/3/32/Flag_of_Pakistan.svg",
      "dialCode":"92",
      "iso2":"PK"
   },
   {
      "name":"Philippines",
      "currency":"PHP",
      "unicodeFlag":"ðŸ‡µðŸ‡­",
      "flag":"https://upload.wikimedia.org/wikipedia/commons/9/99/Flag_of_the_Philippines.svg",
      "dialCode":"63",
      "iso2":"PH"
   },
   {
      "name":"Pitcairn",
      "currency":"NZD",
      "unicodeFlag":"ðŸ‡µðŸ‡³",
      "flag":"https://upload.wikimedia.org/wikipedia/commons/8/88/Flag_of_the_Pitcairn_Islands.svg",
      "dialCode":"870",
      "iso2":"PN"
   },
   {
      "name":"Poland",
      "currency":"PLN",
      "unicodeFlag":"ðŸ‡µðŸ‡±",
      "flag":"https://upload.wikimedia.org/wikipedia/en/1/12/Flag_of_Poland.svg",
      "dialCode":"48",
      "iso2":"PL"
   },
   {
      "name":"Saint Pierre and Miquelon",
      "currency":"EUR",
      "unicodeFlag":"ðŸ‡µðŸ‡²",
      "flag":"https://upload.wikimedia.org/wikipedia/commons/7/74/Flag_of_Saint-Pierre_and_Miquelon.svg",
      "dialCode":"508",
      "iso2":"PM"
   },
   {
      "name":"Zambia",
      "currency":"ZMK",
      "unicodeFlag":"ðŸ‡¿ðŸ‡²",
      "flag":"https://upload.wikimedia.org/wikipedia/commons/0/06/Flag_of_Zambia.svg",
      "dialCode":"260",
      "iso2":"ZM"
   },
   {
      "name":"Western Sahara",
      "currency":"MAD",
      "unicodeFlag":"ðŸ‡ªðŸ‡­",
      "dialCode":"212",
      "iso2":"EH"
   },
   {
      "name":"Estonia",
      "currency":"EUR",
      "unicodeFlag":"ðŸ‡ªðŸ‡ª",
      "flag":"https://upload.wikimedia.org/wikipedia/commons/8/8f/Flag_of_Estonia.svg",
      "dialCode":"372",
      "iso2":"EE"
   },
   {
      "name":"Egypt",
      "currency":"EGP",
      "unicodeFlag":"ðŸ‡ªðŸ‡¬",
      "flag":"https://upload.wikimedia.org/wikipedia/commons/f/fe/Flag_of_Egypt.svg",
      "dialCode":"20",
      "iso2":"EG"
   },
   {
      "name":"Cocos (Keeling) Islands",
      "currency":"AUD",
      "unicodeFlag":"ðŸ‡¨ðŸ‡¨",
      "flag":"https://upload.wikimedia.org/wikipedia/commons/7/74/Flag_of_the_Cocos_%28Keeling%29_Islands.svg",
      "dialCode":"166",
      "iso2":"CC"
   },
   {
      "name":"South Africa",
      "currency":"ZAR",
      "unicodeFlag":"ðŸ‡¿ðŸ‡¦",
      "flag":"https://upload.wikimedia.org/wikipedia/commons/a/af/Flag_of_South_Africa.svg",
      "dialCode":"27",
      "iso2":"ZA"
   },
   {
      "name":"Ecuador",
      "currency":"USD",
      "unicodeFlag":"ðŸ‡ªðŸ‡¨",
      "flag":"https://upload.wikimedia.org/wikipedia/commons/e/e8/Flag_of_Ecuador.svg",
      "dialCode":"593",
      "iso2":"EC"
   },
   {
      "name":"Italy",
      "currency":"EUR",
      "unicodeFlag":"ðŸ‡®ðŸ‡¹",
      "flag":"https://upload.wikimedia.org/wikipedia/en/0/03/Flag_of_Italy.svg",
      "dialCode":"39",
      "iso2":"IT"
   },
   {
      "name":"Vietnam",
      "currency":"VND",
      "unicodeFlag":"ðŸ‡»ðŸ‡³",
      "flag":"https://upload.wikimedia.org/wikipedia/commons/2/21/Flag_of_Vietnam.svg",
      "dialCode":"84",
      "iso2":"VN"
   },
   {
      "name":"Solomon Islands",
      "currency":"SBD",
      "unicodeFlag":"ðŸ‡¸ðŸ‡§",
      "flag":"https://upload.wikimedia.org/wikipedia/commons/7/74/Flag_of_the_Solomon_Islands.svg",
      "dialCode":"677",
      "iso2":"SB"
   },
   {
      "name":"Ethiopia",
      "currency":"ETB",
      "unicodeFlag":"ðŸ‡ªðŸ‡¹",
      "flag":"https://upload.wikimedia.org/wikipedia/commons/7/71/Flag_of_Ethiopia.svg",
      "dialCode":"251",
      "iso2":"ET"
   },
   {
      "name":"Somalia",
      "currency":"SOS",
      "unicodeFlag":"ðŸ‡¸ðŸ‡´",
      "flag":"https://upload.wikimedia.org/wikipedia/commons/a/a0/Flag_of_Somalia.svg",
      "dialCode":"252",
      "iso2":"SO"
   },
   {
      "name":"Zimbabwe",
      "currency":"ZWL",
      "unicodeFlag":"ðŸ‡¿ðŸ‡¼",
      "flag":"https://upload.wikimedia.org/wikipedia/commons/6/6a/Flag_of_Zimbabwe.svg",
      "dialCode":"263",
      "iso2":"ZW"
   },
   {
      "name":"Saudi Arabia",
      "currency":"SAR",
      "unicodeFlag":"ðŸ‡¸ðŸ‡¦",
      "flag":"https://upload.wikimedia.org/wikipedia/commons/0/0d/Flag_of_Saudi_Arabia.svg",
      "dialCode":"966",
      "iso2":"SA"
   },
   {
      "name":"Spain",
      "currency":"EUR",
      "unicodeFlag":"ðŸ‡ªðŸ‡¸",
      "flag":"https://upload.wikimedia.org/wikipedia/en/9/9a/Flag_of_Spain.svg",
      "dialCode":"34",
      "iso2":"ES"
   },
   {
      "name":"Eritrea",
      "currency":"ERN",
      "unicodeFlag":"ðŸ‡ªðŸ‡·",
      "flag":"https://upload.wikimedia.org/wikipedia/commons/2/29/Flag_of_Eritrea.svg",
      "dialCode":"291",
      "iso2":"ER"
   },
   {
      "name":"Montenegro",
      "currency":"EUR",
      "unicodeFlag":"ðŸ‡²ðŸ‡ª",
      "flag":"https://upload.wikimedia.org/wikipedia/commons/6/64/Flag_of_Montenegro.svg",
      "dialCode":"382",
      "iso2":"ME"
   },
   {
      "name":"Moldova",
      "currency":"MDL",
      "unicodeFlag":"ðŸ‡²ðŸ‡©",
      "dialCode":"373",
      "iso2":"MD"
   },
   {
      "name":"Madagascar",
      "currency":"MGA",
      "unicodeFlag":"ðŸ‡²ðŸ‡¬",
      "flag":"https://upload.wikimedia.org/wikipedia/commons/b/bc/Flag_of_Madagascar.svg",
      "dialCode":"261",
      "iso2":"MG"
   },
   {
      "name":"Saint Martin",
      "currency":"EUR",
      "unicodeFlag":"ðŸ‡²ðŸ‡«",
      "dialCode":"590",
      "iso2":"MF"
   },
   {
      "name":"Morocco",
      "currency":"MAD",
      "unicodeFlag":"ðŸ‡²ðŸ‡¦",
      "flag":"https://upload.wikimedia.org/wikipedia/commons/2/2c/Flag_of_Morocco.svg",
      "dialCode":"212",
      "iso2":"MA"
   },
   {
      "name":"Monaco",
      "currency":"EUR",
      "unicodeFlag":"ðŸ‡²ðŸ‡¨",
      "flag":"https://upload.wikimedia.org/wikipedia/commons/e/ea/Flag_of_Monaco.svg",
      "dialCode":"377",
      "iso2":"MC"
   },
   {
      "name":"Uzbekistan",
      "currency":"UZS",
      "unicodeFlag":"ðŸ‡ºðŸ‡¿",
      "flag":"https://upload.wikimedia.org/wikipedia/commons/8/84/Flag_of_Uzbekistan.svg",
      "dialCode":"998",
      "iso2":"UZ"
   },
   {
      "name":"Myanmar",
      "currency":"MMK",
      "unicodeFlag":"ðŸ‡²ðŸ‡²",
      "flag":"https://upload.wikimedia.org/wikipedia/commons/8/8c/Flag_of_Myanmar.svg",
      "dialCode":"95",
      "iso2":"MM"
   },
   {
      "name":"Mali",
      "currency":"XOF",
      "unicodeFlag":"ðŸ‡²ðŸ‡±",
      "flag":"https://upload.wikimedia.org/wikipedia/commons/9/92/Flag_of_Mali.svg",
      "dialCode":"223",
      "iso2":"ML"
   },
   {
      "name":"Macau",
      "currency":"MOP",
      "unicodeFlag":"ðŸ‡²ðŸ‡´",
      "flag":"https://upload.wikimedia.org/wikipedia/commons/6/63/Flag_of_Macau.svg",
      "dialCode":"853",
      "iso2":"MO"
   },
   {
      "name":"Mongolia",
      "currency":"MNT",
      "unicodeFlag":"ðŸ‡²ðŸ‡³",
      "flag":"https://upload.wikimedia.org/wikipedia/commons/4/4c/Flag_of_Mongolia.svg",
      "dialCode":"976",
      "iso2":"MN"
   },
   {
      "name":"Marshall Islands",
      "currency":"USD",
      "unicodeFlag":"ðŸ‡²ðŸ‡­",
      "flag":"https://upload.wikimedia.org/wikipedia/commons/2/2e/Flag_of_the_Marshall_Islands.svg",
      "dialCode":"692",
      "iso2":"MH"
   },
   {
      "name":"Macedonia",
      "currency":"MKD",
      "unicodeFlag":"ðŸ‡²ðŸ‡°",
      "dialCode":"389",
      "iso2":"MK"
   },
   {
      "name":"Mauritius",
      "currency":"MUR",
      "unicodeFlag":"ðŸ‡²ðŸ‡º",
      "flag":"https://upload.wikimedia.org/wikipedia/commons/7/77/Flag_of_Mauritius.svg",
      "dialCode":"230",
      "iso2":"MU"
   },
   {
      "name":"Malta",
      "currency":"EUR",
      "unicodeFlag":"ðŸ‡²ðŸ‡¹",
      "flag":"https://upload.wikimedia.org/wikipedia/commons/7/73/Flag_of_Malta.svg",
      "dialCode":"356",
      "iso2":"MT"
   },
   {
      "name":"Malawi",
      "currency":"MWK",
      "unicodeFlag":"ðŸ‡²ðŸ‡¼",
      "flag":"https://upload.wikimedia.org/wikipedia/commons/d/d1/Flag_of_Malawi.svg",
      "dialCode":"265",
      "iso2":"MW"
   },
   {
      "name":"Maldives",
      "currency":"MVR",
      "unicodeFlag":"ðŸ‡²ðŸ‡»",
      "flag":"https://upload.wikimedia.org/wikipedia/commons/0/0f/Flag_of_Maldives.svg",
      "dialCode":"960",
      "iso2":"MV"
   },
   {
      "name":"Martinique",
      "currency":"EUR",
      "unicodeFlag":"ðŸ‡²ðŸ‡¶",
      "flag":"https://upload.wikimedia.org/wikipedia/commons/6/64/Snake_Flag_of_Martinique.svg",
      "dialCode":"596",
      "iso2":"MQ"
   },
   {
      "name":"Northern Mariana Islands",
      "currency":"USD",
      "unicodeFlag":"ðŸ‡²ðŸ‡µ",
      "flag":"https://upload.wikimedia.org/wikipedia/commons/e/e0/Flag_of_the_Northern_Mariana_Islands.svg",
      "dialCode":"+1-670",
      "iso2":"MP"
   },
   {
      "name":"Montserrat",
      "currency":"XCD",
      "unicodeFlag":"ðŸ‡²ðŸ‡¸",
      "flag":"https://upload.wikimedia.org/wikipedia/commons/d/d0/Flag_of_Montserrat.svg",
      "dialCode":"+1-664",
      "iso2":"MS"
   },
   {
      "name":"Mauritania",
      "currency":"MRO",
      "unicodeFlag":"ðŸ‡²ðŸ‡·",
      "flag":"https://upload.wikimedia.org/wikipedia/commons/4/43/Flag_of_Mauritania.svg",
      "dialCode":"222",
      "iso2":"MR"
   },
   {
      "name":"Isle of Man",
      "currency":"GBP",
      "unicodeFlag":"ðŸ‡®ðŸ‡²",
      "flag":"https://upload.wikimedia.org/wikipedia/commons/b/bc/Flag_of_the_Isle_of_Man.svg",
      "dialCode":"+44-1624",
      "iso2":"IM"
   },
   {
      "name":"Uganda",
      "currency":"UGX",
      "unicodeFlag":"ðŸ‡ºðŸ‡¬",
      "flag":"https://upload.wikimedia.org/wikipedia/commons/4/4e/Flag_of_Uganda.svg",
      "dialCode":"256",
      "iso2":"UG"
   },
   {
      "name":"Tanzania",
      "currency":"TZS",
      "unicodeFlag":"ðŸ‡¹ðŸ‡¿",
      "dialCode":"255",
      "iso2":"TZ"
   },
   {
      "name":"Malaysia",
      "currency":"MYR",
      "unicodeFlag":"ðŸ‡²ðŸ‡¾",
      "flag":"https://upload.wikimedia.org/wikipedia/commons/6/66/Flag_of_Malaysia.svg",
      "dialCode":"60",
      "iso2":"MY"
   },
   {
      "name":"Mexico",
      "currency":"MXN",
      "unicodeFlag":"ðŸ‡²ðŸ‡½",
      "flag":"https://upload.wikimedia.org/wikipedia/commons/f/fc/Flag_of_Mexico.svg",
      "dialCode":"52",
      "iso2":"MX"
   },
   {
      "name":"Israel",
      "currency":"ILS",
      "unicodeFlag":"ðŸ‡®ðŸ‡±",
      "flag":"https://upload.wikimedia.org/wikipedia/commons/d/d4/Flag_of_Israel.svg",
      "dialCode":"972",
      "iso2":"IL"
   },
   {
      "name":"France",
      "currency":"EUR",
      "unicodeFlag":"ðŸ‡«ðŸ‡·",
      "flag":"https://upload.wikimedia.org/wikipedia/en/c/c3/Flag_of_France.svg",
      "dialCode":"33",
      "iso2":"FR"
   },
   {
      "name":"British Indian Ocean Territory",
      "currency":"USD",
      "unicodeFlag":"ðŸ‡®ðŸ‡´",
      "flag":"https://upload.wikimedia.org/wikipedia/commons/6/65/Flag_of_the_Commissioner_of_the_British_Indian_Ocean_Territory.svg",
      "dialCode":"246",
      "iso2":"IO"
   },
   {
      "name":"Saint Helena",
      "currency":"SHP",
      "unicodeFlag":"ðŸ‡¸ðŸ‡­",
      "dialCode":"290",
      "iso2":"SH"
   },
   {
      "name":"Finland",
      "currency":"EUR",
      "unicodeFlag":"ðŸ‡«ðŸ‡®",
      "flag":"https://upload.wikimedia.org/wikipedia/commons/b/bc/Flag_of_Finland.svg",
      "dialCode":"358",
      "iso2":"FI"
   },
   {
      "name":"Fiji",
      "currency":"FJD",
      "unicodeFlag":"ðŸ‡«ðŸ‡¯",
      "flag":"https://upload.wikimedia.org/wikipedia/commons/b/ba/Flag_of_Fiji.svg",
      "dialCode":"679",
      "iso2":"FJ"
   },
   {
      "name":"Falkland Islands",
      "currency":"FKP",
      "unicodeFlag":"ðŸ‡«ðŸ‡°",
      "flag":"https://upload.wikimedia.org/wikipedia/commons/8/83/Flag_of_the_Falkland_Islands.svg",
      "dialCode":"500",
      "iso2":"FK"
   },
   {
      "name":"Micronesia",
      "currency":"USD",
      "unicodeFlag":"ðŸ‡«ðŸ‡²",
      "dialCode":"691",
      "iso2":"FM"
   },
   {
      "name":"Faroe Islands",
      "currency":"DKK",
      "unicodeFlag":"ðŸ‡«ðŸ‡´",
      "flag":"https://upload.wikimedia.org/wikipedia/commons/3/3c/Flag_of_the_Faroe_Islands.svg",
      "dialCode":"298",
      "iso2":"FO"
   },
   {
      "name":"Nicaragua",
      "currency":"NIO",
      "unicodeFlag":"ðŸ‡³ðŸ‡®",
      "flag":"https://upload.wikimedia.org/wikipedia/commons/1/19/Flag_of_Nicaragua.svg",
      "dialCode":"505",
      "iso2":"NI"
   },
   {
      "name":"Netherlands",
      "currency":"EUR",
      "unicodeFlag":"ðŸ‡³ðŸ‡±",
      "flag":"https://upload.wikimedia.org/wikipedia/commons/2/20/Flag_of_the_Netherlands.svg",
      "dialCode":"31",
      "iso2":"NL"
   },
   {
      "name":"Norway",
      "currency":"NOK",
      "unicodeFlag":"ðŸ‡³ðŸ‡´",
      "flag":"https://upload.wikimedia.org/wikipedia/commons/d/d9/Flag_of_Norway.svg",
      "dialCode":"47",
      "iso2":"NO"
   },
   {
      "name":"Namibia",
      "currency":"NAD",
      "unicodeFlag":"ðŸ‡³ðŸ‡¦",
      "flag":"https://upload.wikimedia.org/wikipedia/commons/0/00/Flag_of_Namibia.svg",
      "dialCode":"264",
      "iso2":"NA"
   },
   {
      "name":"Vanuatu",
      "currency":"VUV",
      "unicodeFlag":"ðŸ‡»ðŸ‡º",
      "flag":"https://upload.wikimedia.org/wikipedia/commons/b/bc/Flag_of_Vanuatu.svg",
      "dialCode":"678",
      "iso2":"VU"
   },
   {
      "name":"New Caledonia",
      "currency":"XPF",
      "unicodeFlag":"ðŸ‡³ðŸ‡¨",
      "flag":"https://upload.wikimedia.org/wikipedia/commons/2/26/Flags_of_New_Caledonia.svg",
      "dialCode":"687",
      "iso2":"NC"
   },
   {
      "name":"Niger",
      "currency":"XOF",
      "unicodeFlag":"ðŸ‡³ðŸ‡ª",
      "flag":"https://upload.wikimedia.org/wikipedia/commons/f/f4/Flag_of_Niger.svg",
      "dialCode":"227",
      "iso2":"NE"
   },
   {
      "name":"Norfolk Island",
      "currency":"AUD",
      "unicodeFlag":"ðŸ‡³ðŸ‡«",
      "flag":"https://upload.wikimedia.org/wikipedia/commons/4/48/Flag_of_Norfolk_Island.svg",
      "dialCode":"672",
      "iso2":"NF"
   },
   {
      "name":"Nigeria",
      "currency":"NGN",
      "unicodeFlag":"ðŸ‡³ðŸ‡¬",
      "flag":"https://upload.wikimedia.org/wikipedia/commons/7/79/Flag_of_Nigeria.svg",
      "dialCode":"234",
      "iso2":"NG"
   },
   {
      "name":"New Zealand",
      "currency":"NZD",
      "unicodeFlag":"ðŸ‡³ðŸ‡¿",
      "flag":"https://upload.wikimedia.org/wikipedia/commons/3/3e/Flag_of_New_Zealand.svg",
      "dialCode":"64",
      "iso2":"NZ"
   },
   {
      "name":"Nepal",
      "currency":"NPR",
      "unicodeFlag":"ðŸ‡³ðŸ‡µ",
      "flag":"https://upload.wikimedia.org/wikipedia/commons/9/9b/Flag_of_Nepal.svg",
      "dialCode":"977",
      "iso2":"NP"
   },
   {
      "name":"Nauru",
      "currency":"AUD",
      "unicodeFlag":"ðŸ‡³ðŸ‡·",
      "flag":"https://upload.wikimedia.org/wikipedia/commons/3/30/Flag_of_Nauru.svg",
      "dialCode":"674",
      "iso2":"NR"
   },
   {
      "name":"Niue",
      "currency":"NZD",
      "unicodeFlag":"ðŸ‡³ðŸ‡º",
      "flag":"https://upload.wikimedia.org/wikipedia/commons/0/01/Flag_of_Niue.svg",
      "dialCode":"683",
      "iso2":"NU"
   },
   {
      "name":"Cook Islands",
      "currency":"NZD",
      "unicodeFlag":"ðŸ‡¨ðŸ‡°",
      "flag":"https://upload.wikimedia.org/wikipedia/commons/3/35/Flag_of_the_Cook_Islands.svg",
      "dialCode":"682",
      "iso2":"CK"
   },
   {
      "name":"Kosovo",
      "currency":"EUR",
      "unicodeFlag":"ðŸ‡½ðŸ‡°",
      "iso2":"XK"
   },
   {
      "name":"Ivory Coast",
      "currency":"XOF",
      "unicodeFlag":"ðŸ‡¨ðŸ‡®",
      "dialCode":"225",
      "iso2":"CI"
   },
   {
      "name":"Switzerland",
      "currency":"CHF",
      "unicodeFlag":"ðŸ‡¨ðŸ‡­",
      "flag":"https://upload.wikimedia.org/wikipedia/commons/0/08/Flag_of_Switzerland_%28Pantone%29.svg",
      "dialCode":"41",
      "iso2":"CH"
   },
   {
      "name":"Colombia",
      "currency":"COP",
      "unicodeFlag":"ðŸ‡¨ðŸ‡´",
      "flag":"https://upload.wikimedia.org/wikipedia/commons/2/21/Flag_of_Colombia.svg",
      "dialCode":"57",
      "iso2":"CO"
   },
   {
      "name":"China",
      "currency":"CNY",
      "unicodeFlag":"ðŸ‡¨ðŸ‡³",
      "flag":"https://upload.wikimedia.org/wikipedia/commons/f/fa/Flag_of_the_People%27s_Republic_of_China.svg",
      "dialCode":"86",
      "iso2":"CN"
   },
   {
      "name":"Cameroon",
      "currency":"XAF",
      "unicodeFlag":"ðŸ‡¨ðŸ‡²",
      "flag":"https://upload.wikimedia.org/wikipedia/commons/4/4f/Flag_of_Cameroon.svg",
      "dialCode":"237",
      "iso2":"CM"
   },
   {
      "name":"Chile",
      "currency":"CLP",
      "unicodeFlag":"ðŸ‡¨ðŸ‡±",
      "flag":"https://upload.wikimedia.org/wikipedia/commons/7/78/Flag_of_Chile.svg",
      "dialCode":"56",
      "iso2":"CL"
   },
   {
      "name":"Cocos Islands",
      "currency":"AUD",
      "unicodeFlag":"ðŸ‡¨ðŸ‡¨",
      "dialCode":"61",
      "iso2":"CC"
   },
   {
      "name":"Canada",
      "currency":"CAD",
      "unicodeFlag":"ðŸ‡¨ðŸ‡¦",
      "flag":"https://upload.wikimedia.org/wikipedia/en/c/cf/Flag_of_Canada.svg",
      "dialCode":"1",
      "iso2":"CA"
   },
   {
      "name":"Congo",
      "currency":"XAF",
      "unicodeFlag":"ðŸ‡¨ðŸ‡¬",
      "flag":"https://upload.wikimedia.org/wikipedia/commons/9/92/Flag_of_the_Republic_of_the_Congo.svg",
      "dialCode":"242",
      "iso2":"CG"
   },
   {
      "name":"Central African Republic",
      "currency":"XAF",
      "unicodeFlag":"ðŸ‡¨ðŸ‡«",
      "flag":"https://upload.wikimedia.org/wikipedia/commons/6/6f/Flag_of_the_Central_African_Republic.svg",
      "dialCode":"236",
      "iso2":"CF"
   },
   {
      "name":"Democratic Republic of the Congo",
      "currency":"CDF",
      "unicodeFlag":"ðŸ‡¨ðŸ‡©",
      "dialCode":"243",
      "iso2":"CD"
   },
   {
      "name":"Czech Republic",
      "currency":"CZK",
      "unicodeFlag":"ðŸ‡¨ðŸ‡¿",
      "flag":"https://upload.wikimedia.org/wikipedia/commons/c/cb/Flag_of_the_Czech_Republic.svg",
      "dialCode":"420",
      "iso2":"CZ"
   },
   {
      "name":"Cyprus",
      "currency":"EUR",
      "unicodeFlag":"ðŸ‡¨ðŸ‡¾",
      "flag":"https://upload.wikimedia.org/wikipedia/commons/d/d4/Flag_of_Cyprus.svg",
      "dialCode":"357",
      "iso2":"CY"
   },
   {
      "name":"Christmas Island",
      "currency":"AUD",
      "unicodeFlag":"ðŸ‡¨ðŸ‡½",
      "flag":"https://upload.wikimedia.org/wikipedia/commons/6/67/Flag_of_Christmas_Island.svg",
      "dialCode":"61",
      "iso2":"CX"
   },
   {
      "name":"Costa Rica",
      "currency":"CRC",
      "unicodeFlag":"ðŸ‡¨ðŸ‡·",
      "flag":"https://upload.wikimedia.org/wikipedia/commons/b/bc/Flag_of_Costa_Rica_%28state%29.svg",
      "dialCode":"506",
      "iso2":"CR"
   },
   {
      "name":"Curacao",
      "currency":"ANG",
      "unicodeFlag":"ðŸ‡¨ðŸ‡¼",
      "dialCode":"599",
      "iso2":"CW"
   },
   {
      "name":"Cape Verde",
      "currency":"CVE",
      "unicodeFlag":"ðŸ‡¨ðŸ‡»",
      "flag":"https://upload.wikimedia.org/wikipedia/commons/3/38/Flag_of_Cape_Verde.svg",
      "dialCode":"238",
      "iso2":"CV"
   },
   {
      "name":"Cuba",
      "currency":"CUP",
      "unicodeFlag":"ðŸ‡¨ðŸ‡º",
      "flag":"https://upload.wikimedia.org/wikipedia/commons/b/bd/Flag_of_Cuba.svg",
      "dialCode":"53",
      "iso2":"CU"
   },
   {
      "name":"Swaziland",
      "currency":"SZL",
      "unicodeFlag":"ðŸ‡¸ðŸ‡¿",
      "flag":"https://upload.wikimedia.org/wikipedia/commons/f/fb/Flag_of_Eswatini.svg",
      "dialCode":"268",
      "iso2":"SZ"
   },
   {
      "name":"Syria",
      "currency":"SYP",
      "unicodeFlag":"ðŸ‡¸ðŸ‡¾",
      "flag":"https://upload.wikimedia.org/wikipedia/commons/5/53/Flag_of_Syria.svg",
      "dialCode":"963",
      "iso2":"SY"
   },
   {
      "name":"Sint Maarten",
      "currency":"ANG",
      "unicodeFlag":"ðŸ‡¸ðŸ‡½",
      "dialCode":"599",
      "iso2":"SX"
   },
   {
      "name":"Kyrgyzstan",
      "currency":"KGS",
      "unicodeFlag":"ðŸ‡°ðŸ‡¬",
      "flag":"https://upload.wikimedia.org/wikipedia/commons/c/c7/Flag_of_Kyrgyzstan.svg",
      "dialCode":"996",
      "iso2":"KG"
   },
   {
      "name":"Kenya",
      "currency":"KES",
      "unicodeFlag":"ðŸ‡°ðŸ‡ª",
      "flag":"https://upload.wikimedia.org/wikipedia/commons/4/49/Flag_of_Kenya.svg",
      "dialCode":"254",
      "iso2":"KE"
   },
   {
      "name":"South Sudan",
      "currency":"SSP",
      "unicodeFlag":"ðŸ‡¸ðŸ‡¸",
      "dialCode":"211",
      "iso2":"SS"
   },
   {
      "name":"Suriname",
      "currency":"SRD",
      "unicodeFlag":"ðŸ‡¸ðŸ‡·",
      "flag":"https://upload.wikimedia.org/wikipedia/commons/6/60/Flag_of_Suriname.svg",
      "dialCode":"597",
      "iso2":"SR"
   },
   {
      "name":"Kiribati",
      "currency":"AUD",
      "unicodeFlag":"ðŸ‡°ðŸ‡®",
      "flag":"https://upload.wikimedia.org/wikipedia/commons/d/d3/Flag_of_Kiribati.svg",
      "dialCode":"686",
      "iso2":"KI"
   },
   {
      "name":"Cambodia",
      "currency":"KHR",
      "unicodeFlag":"ðŸ‡°ðŸ‡­",
      "flag":"https://upload.wikimedia.org/wikipedia/commons/8/83/Flag_of_Cambodia.svg",
      "dialCode":"855",
      "iso2":"KH"
   },
   {
      "name":"Saint Kitts and Nevis",
      "currency":"XCD",
      "unicodeFlag":"ðŸ‡°ðŸ‡³",
      "flag":"https://upload.wikimedia.org/wikipedia/commons/f/fe/Flag_of_Saint_Kitts_and_Nevis.svg",
      "dialCode":"+1-869",
      "iso2":"KN"
   },
   {
      "name":"Comoros",
      "currency":"KMF",
      "unicodeFlag":"ðŸ‡°ðŸ‡²",
      "flag":"https://upload.wikimedia.org/wikipedia/commons/9/94/Flag_of_the_Comoros.svg",
      "dialCode":"269",
      "iso2":"KM"
   },
   {
      "name":"Sao Tome and Principe",
      "currency":"STD",
      "unicodeFlag":"ðŸ‡¸ðŸ‡¹",
      "flag":"https://upload.wikimedia.org/wikipedia/commons/4/4f/Flag_of_Sao_Tome_and_Principe.svg",
      "dialCode":"239",
      "iso2":"ST"
   },
   {
      "name":"Slovakia",
      "currency":"EUR",
      "unicodeFlag":"ðŸ‡¸ðŸ‡°",
      "flag":"https://upload.wikimedia.org/wikipedia/commons/e/e6/Flag_of_Slovakia.svg",
      "dialCode":"421",
      "iso2":"SK"
   },
   {
      "name":"South Korea",
      "currency":"KRW",
      "unicodeFlag":"ðŸ‡°ðŸ‡·",
      "dialCode":"82",
      "iso2":"KR"
   },
   {
      "name":"Slovenia",
      "currency":"EUR",
      "unicodeFlag":"ðŸ‡¸ðŸ‡®",
      "flag":"https://upload.wikimedia.org/wikipedia/commons/f/f0/Flag_of_Slovenia.svg",
      "dialCode":"386",
      "iso2":"SI"
   },
   {
      "name":"North Korea",
      "currency":"KPW",
      "unicodeFlag":"ðŸ‡°ðŸ‡µ",
      "dialCode":"850",
      "iso2":"KP"
   },
   {
      "name":"Kuwait",
      "currency":"KWD",
      "unicodeFlag":"ðŸ‡°ðŸ‡¼",
      "flag":"https://upload.wikimedia.org/wikipedia/commons/a/aa/Flag_of_Kuwait.svg",
      "dialCode":"965",
      "iso2":"KW"
   },
   {
      "name":"Senegal",
      "currency":"XOF",
      "unicodeFlag":"ðŸ‡¸ðŸ‡³",
      "flag":"https://upload.wikimedia.org/wikipedia/commons/f/fd/Flag_of_Senegal.svg",
      "dialCode":"221",
      "iso2":"SN"
   },
   {
      "name":"San Marino",
      "currency":"EUR",
      "unicodeFlag":"ðŸ‡¸ðŸ‡²",
      "flag":"https://upload.wikimedia.org/wikipedia/commons/b/b1/Flag_of_San_Marino.svg",
      "dialCode":"378",
      "iso2":"SM"
   },
   {
      "name":"Sierra Leone",
      "currency":"SLL",
      "unicodeFlag":"ðŸ‡¸ðŸ‡±",
      "flag":"https://upload.wikimedia.org/wikipedia/commons/1/17/Flag_of_Sierra_Leone.svg",
      "dialCode":"232",
      "iso2":"SL"
   },
   {
      "name":"Seychelles",
      "currency":"SCR",
      "unicodeFlag":"ðŸ‡¸ðŸ‡¨",
      "flag":"https://upload.wikimedia.org/wikipedia/commons/f/fc/Flag_of_Seychelles.svg",
      "dialCode":"248",
      "iso2":"SC"
   },
   {
      "name":"Kazakhstan",
      "currency":"KZT",
      "unicodeFlag":"ðŸ‡°ðŸ‡¿",
      "flag":"https://upload.wikimedia.org/wikipedia/commons/d/d3/Flag_of_Kazakhstan.svg",
      "dialCode":"7",
      "iso2":"KZ"
   },
   {
      "name":"Cayman Islands",
      "currency":"KYD",
      "unicodeFlag":"ðŸ‡°ðŸ‡¾",
      "flag":"https://upload.wikimedia.org/wikipedia/commons/0/0f/Flag_of_the_Cayman_Islands.svg",
      "dialCode":"+1-345",
      "iso2":"KY"
   },
   {
      "name":"Singapore",
      "currency":"SGD",
      "unicodeFlag":"ðŸ‡¸ðŸ‡¬",
      "flag":"https://upload.wikimedia.org/wikipedia/commons/4/48/Flag_of_Singapore.svg",
      "dialCode":"65",
      "iso2":"SG"
   },
   {
      "name":"Sweden",
      "currency":"SEK",
      "unicodeFlag":"ðŸ‡¸ðŸ‡ª",
      "flag":"https://upload.wikimedia.org/wikipedia/en/4/4c/Flag_of_Sweden.svg",
      "dialCode":"46",
      "iso2":"SE"
   },
   {
      "name":"Sudan",
      "currency":"SDG",
      "unicodeFlag":"ðŸ‡¸ðŸ‡©",
      "flag":"https://upload.wikimedia.org/wikipedia/commons/0/01/Flag_of_Sudan.svg",
      "dialCode":"249",
      "iso2":"SD"
   },
   {
      "name":"Dominican Republic",
      "currency":"DOP",
      "unicodeFlag":"ðŸ‡©ðŸ‡´",
      "flag":"https://upload.wikimedia.org/wikipedia/commons/9/9f/Flag_of_the_Dominican_Republic.svg",
      "dialCode":"+1-809 and 1-829",
      "iso2":"DO"
   },
   {
      "name":"Dominica",
      "currency":"XCD",
      "unicodeFlag":"ðŸ‡©ðŸ‡²",
      "flag":"https://upload.wikimedia.org/wikipedia/commons/c/c4/Flag_of_Dominica.svg",
      "dialCode":"+1-767",
      "iso2":"DM"
   },
   {
      "name":"Djibouti",
      "currency":"DJF",
      "unicodeFlag":"ðŸ‡©ðŸ‡¯",
      "flag":"https://upload.wikimedia.org/wikipedia/commons/3/34/Flag_of_Djibouti.svg",
      "dialCode":"253",
      "iso2":"DJ"
   },
   {
      "name":"Denmark",
      "currency":"DKK",
      "unicodeFlag":"ðŸ‡©ðŸ‡°",
      "flag":"https://upload.wikimedia.org/wikipedia/commons/9/9c/Flag_of_Denmark.svg",
      "dialCode":"45",
      "iso2":"DK"
   },
   {
      "name":"British Virgin Islands",
      "currency":"USD",
      "unicodeFlag":"ðŸ‡»ðŸ‡¬",
      "dialCode":"+1-284",
      "iso2":"VG"
   },
   {
      "name":"Germany",
      "currency":"EUR",
      "unicodeFlag":"ðŸ‡©ðŸ‡ª",
      "flag":"https://upload.wikimedia.org/wikipedia/en/b/ba/Flag_of_Germany.svg",
      "dialCode":"49",
      "iso2":"DE"
   },
   {
      "name":"Yemen",
      "currency":"YER",
      "unicodeFlag":"ðŸ‡¾ðŸ‡ª",
      "flag":"https://upload.wikimedia.org/wikipedia/commons/8/89/Flag_of_Yemen.svg",
      "dialCode":"967",
      "iso2":"YE"
   },
   {
      "name":"Algeria",
      "currency":"DZD",
      "unicodeFlag":"ðŸ‡©ðŸ‡¿",
      "flag":"https://upload.wikimedia.org/wikipedia/commons/7/77/Flag_of_Algeria.svg",
      "dialCode":"213",
      "iso2":"DZ"
   },
   {
      "name":"United States",
      "currency":"USD",
      "unicodeFlag":"ðŸ‡ºðŸ‡¸",
      "flag":"https://upload.wikimedia.org/wikipedia/en/a/a4/Flag_of_the_United_States.svg",
      "dialCode":"1",
      "iso2":"US"
   },
   {
      "name":"Uruguay",
      "currency":"UYU",
      "unicodeFlag":"ðŸ‡ºðŸ‡¾",
      "flag":"https://upload.wikimedia.org/wikipedia/commons/f/fe/Flag_of_Uruguay.svg",
      "dialCode":"598",
      "iso2":"UY"
   },
   {
      "name":"Mayotte",
      "currency":"EUR",
      "unicodeFlag":"ðŸ‡¾ðŸ‡¹",
      "flag":"https://upload.wikimedia.org/wikipedia/en/c/c3/Flag_of_France.svg",
      "dialCode":"262",
      "iso2":"YT"
   },
   {
      "name":"United States Minor Outlying Islands",
      "currency":"USD",
      "unicodeFlag":"ðŸ‡ºðŸ‡²",
      "flag":"https://upload.wikimedia.org/wikipedia/en/a/a4/Flag_of_the_United_States.svg",
      "dialCode":"1",
      "iso2":"UM"
   },
   {
      "name":"Lebanon",
      "currency":"LBP",
      "unicodeFlag":"ðŸ‡±ðŸ‡§",
      "flag":"https://upload.wikimedia.org/wikipedia/commons/5/59/Flag_of_Lebanon.svg",
      "dialCode":"961",
      "iso2":"LB"
   },
   {
      "name":"Saint Lucia",
      "currency":"XCD",
      "unicodeFlag":"ðŸ‡±ðŸ‡¨",
      "flag":"https://upload.wikimedia.org/wikipedia/commons/9/9f/Flag_of_Saint_Lucia.svg",
      "dialCode":"+1-758",
      "iso2":"LC"
   },
   {
      "name":"Laos",
      "currency":"LAK",
      "unicodeFlag":"ðŸ‡±ðŸ‡¦",
      "flag":"https://upload.wikimedia.org/wikipedia/commons/5/56/Flag_of_Laos.svg",
      "dialCode":"856",
      "iso2":"LA"
   },
   {
      "name":"Tuvalu",
      "currency":"AUD",
      "unicodeFlag":"ðŸ‡¹ðŸ‡»",
      "flag":"https://upload.wikimedia.org/wikipedia/commons/3/38/Flag_of_Tuvalu.svg",
      "dialCode":"688",
      "iso2":"TV"
   },
   {
      "name":"Taiwan",
      "currency":"TWD",
      "unicodeFlag":"ðŸ‡¹ðŸ‡¼",
      "flag":"https://upload.wikimedia.org/wikipedia/commons/7/72/Flag_of_the_Republic_of_China.svg",
      "dialCode":"886",
      "iso2":"TW"
   },
   {
      "name":"Trinidad and Tobago",
      "currency":"TTD",
      "unicodeFlag":"ðŸ‡¹ðŸ‡¹",
      "flag":"https://upload.wikimedia.org/wikipedia/commons/6/64/Flag_of_Trinidad_and_Tobago.svg",
      "dialCode":"+1-868",
      "iso2":"TT"
   },
   {
      "name":"Turkey",
      "currency":"TRY",
      "unicodeFlag":"ðŸ‡¹ðŸ‡·",
      "flag":"https://upload.wikimedia.org/wikipedia/commons/b/b4/Flag_of_Turkey.svg",
      "dialCode":"90",
      "iso2":"TR"
   },
   {
      "name":"Sri Lanka",
      "currency":"LKR",
      "unicodeFlag":"ðŸ‡±ðŸ‡°",
      "flag":"https://upload.wikimedia.org/wikipedia/commons/1/11/Flag_of_Sri_Lanka.svg",
      "dialCode":"94",
      "iso2":"LK"
   },
   {
      "name":"Liechtenstein",
      "currency":"CHF",
      "unicodeFlag":"ðŸ‡±ðŸ‡®",
      "flag":"https://upload.wikimedia.org/wikipedia/commons/4/47/Flag_of_Liechtenstein.svg",
      "dialCode":"423",
      "iso2":"LI"
   },
   {
      "name":"Latvia",
      "currency":"EUR",
      "unicodeFlag":"ðŸ‡±ðŸ‡»",
      "flag":"https://upload.wikimedia.org/wikipedia/commons/8/84/Flag_of_Latvia.svg",
      "dialCode":"371",
      "iso2":"LV"
   },
   {
      "name":"Tonga",
      "currency":"TOP",
      "unicodeFlag":"ðŸ‡¹ðŸ‡´",
      "flag":"https://upload.wikimedia.org/wikipedia/commons/9/9a/Flag_of_Tonga.svg",
      "dialCode":"676",
      "iso2":"TO"
   },
   {
      "name":"Lithuania",
      "currency":"LTL",
      "unicodeFlag":"ðŸ‡±ðŸ‡¹",
      "flag":"https://upload.wikimedia.org/wikipedia/commons/1/11/Flag_of_Lithuania.svg",
      "dialCode":"370",
      "iso2":"LT"
   },
   {
      "name":"Luxembourg",
      "currency":"EUR",
      "unicodeFlag":"ðŸ‡±ðŸ‡º",
      "flag":"https://upload.wikimedia.org/wikipedia/commons/d/da/Flag_of_Luxembourg.svg",
      "dialCode":"352",
      "iso2":"LU"
   },
   {
      "name":"Liberia",
      "currency":"LRD",
      "unicodeFlag":"ðŸ‡±ðŸ‡·",
      "flag":"https://upload.wikimedia.org/wikipedia/commons/b/b8/Flag_of_Liberia.svg",
      "dialCode":"231",
      "iso2":"LR"
   },
   {
      "name":"Lesotho",
      "currency":"LSL",
      "unicodeFlag":"ðŸ‡±ðŸ‡¸",
      "flag":"https://upload.wikimedia.org/wikipedia/commons/4/4a/Flag_of_Lesotho.svg",
      "dialCode":"266",
      "iso2":"LS"
   },
   {
      "name":"Thailand",
      "currency":"THB",
      "unicodeFlag":"ðŸ‡¹ðŸ‡­",
      "flag":"https://upload.wikimedia.org/wikipedia/commons/a/a9/Flag_of_Thailand.svg",
      "dialCode":"66",
      "iso2":"TH"
   },
   {
      "name":"French Southern Territories",
      "currency":"EUR",
      "unicodeFlag":"ðŸ‡¹ðŸ‡«",
      "iso2":"TF"
   },
   {
      "name":"Togo",
      "currency":"XOF",
      "unicodeFlag":"ðŸ‡¹ðŸ‡¬",
      "flag":"https://upload.wikimedia.org/wikipedia/commons/6/68/Flag_of_Togo.svg",
      "dialCode":"228",
      "iso2":"TG"
   },
   {
      "name":"Chad",
      "currency":"XAF",
      "unicodeFlag":"ðŸ‡¹ðŸ‡©",
      "flag":"https://upload.wikimedia.org/wikipedia/commons/4/4b/Flag_of_Chad.svg",
      "dialCode":"235",
      "iso2":"TD"
   },
   {
      "name":"Turks and Caicos Islands",
      "currency":"USD",
      "unicodeFlag":"ðŸ‡¹ðŸ‡¨",
      "flag":"https://upload.wikimedia.org/wikipedia/commons/a/a0/Flag_of_the_Turks_and_Caicos_Islands.svg",
      "dialCode":"+1-649",
      "iso2":"TC"
   },
   {
      "name":"Libya",
      "currency":"LYD",
      "unicodeFlag":"ðŸ‡±ðŸ‡¾",
      "dialCode":"218",
      "iso2":"LY"
   },
   {
      "name":"Vatican",
      "currency":"EUR",
      "unicodeFlag":"ðŸ‡»ðŸ‡¦",
      "dialCode":"379",
      "iso2":"VA"
   },
   {
      "name":"Saint Vincent and the Grenadines",
      "currency":"XCD",
      "unicodeFlag":"ðŸ‡»ðŸ‡¨",
      "flag":"https://upload.wikimedia.org/wikipedia/commons/6/6d/Flag_of_Saint_Vincent_and_the_Grenadines.svg",
      "dialCode":"+1-784",
      "iso2":"VC"
   },
   {
      "name":"United Arab Emirates",
      "currency":"AED",
      "unicodeFlag":"ðŸ‡¦ðŸ‡ª",
      "flag":"https://upload.wikimedia.org/wikipedia/commons/c/cb/Flag_of_the_United_Arab_Emirates.svg",
      "dialCode":"971",
      "iso2":"AE"
   },
   {
      "name":"Andorra",
      "currency":"EUR",
      "unicodeFlag":"ðŸ‡¦ðŸ‡©",
      "flag":"https://upload.wikimedia.org/wikipedia/commons/1/19/Flag_of_Andorra.svg",
      "dialCode":"376",
      "iso2":"AD"
   },
   {
      "name":"Antigua and Barbuda",
      "currency":"XCD",
      "unicodeFlag":"ðŸ‡¦ðŸ‡¬",
      "flag":"https://upload.wikimedia.org/wikipedia/commons/8/89/Flag_of_Antigua_and_Barbuda.svg",
      "dialCode":"+1-268",
      "iso2":"AG"
   },
   {
      "name":"Afghanistan",
      "currency":"AFN",
      "unicodeFlag":"ðŸ‡¦ðŸ‡«",
      "flag":"https://upload.wikimedia.org/wikipedia/commons/9/9a/Flag_of_Afghanistan.svg",
      "dialCode":"93",
      "iso2":"AF"
   },
   {
      "name":"Anguilla",
      "currency":"XCD",
      "unicodeFlag":"ðŸ‡¦ðŸ‡®",
      "flag":"https://upload.wikimedia.org/wikipedia/commons/b/b4/Flag_of_Anguilla.svg",
      "dialCode":"+1-264",
      "iso2":"AI"
   },
   {
      "name":"U.S. Virgin Islands",
      "currency":"USD",
      "unicodeFlag":"ðŸ‡»ðŸ‡®",
      "dialCode":"+1-340",
      "iso2":"VI"
   },
   {
      "name":"Iceland",
      "currency":"ISK",
      "unicodeFlag":"ðŸ‡®ðŸ‡¸",
      "flag":"https://upload.wikimedia.org/wikipedia/commons/c/ce/Flag_of_Iceland.svg",
      "dialCode":"354",
      "iso2":"IS"
   },
   {
      "name":"Iran",
      "currency":"IRR",
      "unicodeFlag":"ðŸ‡®ðŸ‡·",
      "flag":" https://upload.wikimedia.org/wikipedia/commons/c/ca/Flag_of_Iran.svg",
      "dialCode":"98",
      "iso2":"IR"
   },
   {
      "name":"Armenia",
      "currency":"AMD",
      "unicodeFlag":"ðŸ‡¦ðŸ‡²",
      "flag":"https://upload.wikimedia.org/wikipedia/commons/2/2f/Flag_of_Armenia.svg",
      "dialCode":"374",
      "iso2":"AM"
   },
   {
      "name":"Albania",
      "currency":"ALL",
      "unicodeFlag":"ðŸ‡¦ðŸ‡±",
      "flag":"https://upload.wikimedia.org/wikipedia/commons/3/36/Flag_of_Albania.svg",
      "dialCode":"355",
      "iso2":"AL"
   },
   {
      "name":"Angola",
      "currency":"AOA",
      "unicodeFlag":"ðŸ‡¦ðŸ‡´",
      "flag":"https://upload.wikimedia.org/wikipedia/commons/9/9d/Flag_of_Angola.svg",
      "dialCode":"244",
      "iso2":"AO"
   },
   {
      "name":"Antarctica",
      "unicodeFlag":"ðŸ‡¦ðŸ‡¶",
      "iso2":"AQ"
   },
   {
      "name":"American Samoa",
      "currency":"USD",
      "unicodeFlag":"ðŸ‡¦ðŸ‡¸",
      "dialCode":"+1-684",
      "iso2":"AS"
   },
   {
      "name":"Argentina",
      "currency":"ARS",
      "unicodeFlag":"ðŸ‡¦ðŸ‡·",
      "flag":"https://upload.wikimedia.org/wikipedia/commons/1/1a/Flag_of_Argentina.svg",
      "dialCode":"54",
      "iso2":"AR"
   },
   {
      "name":"Australia",
      "currency":"AUD",
      "unicodeFlag":"ðŸ‡¦ðŸ‡º",
      "flag":"https://upload.wikimedia.org/wikipedia/commons/8/88/Flag_of_Australia_%28converted%29.svg",
      "dialCode":"61",
      "iso2":"AU"
   },
   {
      "name":"Austria",
      "currency":"EUR",
      "unicodeFlag":"ðŸ‡¦ðŸ‡¹",
      "flag":"https://upload.wikimedia.org/wikipedia/commons/4/41/Flag_of_Austria.svg",
      "dialCode":"43",
      "iso2":"AT"
   },
   {
      "name":"Aruba",
      "currency":"AWG",
      "unicodeFlag":"ðŸ‡¦ðŸ‡¼",
      "flag":"https://upload.wikimedia.org/wikipedia/commons/f/f6/Flag_of_Aruba.svg",
      "dialCode":"297",
      "iso2":"AW"
   },
   {
      "name":"India",
      "currency":"INR",
      "unicodeFlag":"ðŸ‡®ðŸ‡³",
      "flag":"https://upload.wikimedia.org/wikipedia/en/4/41/Flag_of_India.svg",
      "dialCode":"91",
      "iso2":"IN"
   },
   {
      "name":"Aland Islands",
      "currency":"EUR",
      "unicodeFlag":"ðŸ‡¦ðŸ‡½",
      "dialCode":"+358-18",
      "iso2":"AX"
   },
   {
      "name":"Azerbaijan",
      "currency":"AZN",
      "unicodeFlag":"ðŸ‡¦ðŸ‡¿",
      "flag":"https://upload.wikimedia.org/wikipedia/commons/d/dd/Flag_of_Azerbaijan.svg",
      "dialCode":"994",
      "iso2":"AZ"
   },
   {
      "name":"Ireland",
      "currency":"EUR",
      "unicodeFlag":"ðŸ‡®ðŸ‡ª",
      "flag":"https://upload.wikimedia.org/wikipedia/commons/4/45/Flag_of_Ireland.svg",
      "dialCode":"353",
      "iso2":"IE"
   },
   {
      "name":"Indonesia",
      "currency":"IDR",
      "unicodeFlag":"ðŸ‡®ðŸ‡©",
      "flag":"https://upload.wikimedia.org/wikipedia/commons/9/9f/Flag_of_Indonesia.svg",
      "dialCode":"62",
      "iso2":"ID"
   },
   {
      "name":"Ukraine",
      "currency":"UAH",
      "unicodeFlag":"ðŸ‡ºðŸ‡¦",
      "flag":"https://upload.wikimedia.org/wikipedia/commons/4/49/Flag_of_Ukraine.svg",
      "dialCode":"380",
      "iso2":"UA"
   },
   {
      "name":"Qatar",
      "currency":"QAR",
      "unicodeFlag":"ðŸ‡¶ðŸ‡¦",
      "flag":"https://upload.wikimedia.org/wikipedia/commons/6/65/Flag_of_Qatar.svg",
      "dialCode":"974",
      "iso2":"QA"
   },
   {
      "name":"Mozambique",
      "currency":"MZN",
      "unicodeFlag":"ðŸ‡²ðŸ‡¿",
      "flag":"https://upload.wikimedia.org/wikipedia/commons/d/d0/Flag_of_Mozambique.svg",
      "dialCode":"258",
      "iso2":"MZ"
   }
]